IRIDIUM 135             
1 43070U 17083A   26185.10531451  .00000093  00000+0  26178-4 0  9994
2 43070  86.3982 314.9425 0002182  93.1073 267.0373 14.34218111446576
IRIDIUM 138             
1 43071U 17083B   26185.06091617  .00000081  00000+0  21777-4 0  9992
2 43071  86.3994 314.6590 0002149  88.2751 271.8692 14.34218071446551
IRIDIUM 116             
1 43072U 17083C   26185.09897183  .00000105  00000+0  30395-4 0  9991
2 43072  86.3981 314.9308 0002311 100.9145 259.2311 14.34218237446594
IRIDIUM 130             
1 43073U 17083D   26185.27656392  .00000073  00000+0  19063-4 0  9990
2 43073  86.3988 315.1335 0002094  98.8660 261.2773 14.34217796446561
IRIDIUM 151             
1 43074U 17083E   26185.11165713  .00000060  00000+0  14268-4 0  9994
2 43074  86.3983 314.9835 0002229  94.1329 266.0121 14.34217920446569
IRIDIUM 134             
1 43075U 17083F   26184.80086842  .00000223  00000+0  72517-4 0  9997
2 43075  86.3982 315.1215 0002197  95.2021 264.9426 14.34218687446486
IRIDIUM 137             
1 43076U 17083G   26185.09263003  .00000059  00000+0  14010-4 0  9997
2 43076  86.3983 315.0927 0002624  98.5513 261.5980 14.34217940446595
IRIDIUM 141             
1 43077U 17083H   26184.87698128  .00000055  00000+0  12482-4 0  9990
2 43077  86.3979 315.0126 0002190  91.9620 268.1826 14.34217834446567
IRIDIUM 153             
1 43078U 17083J   26184.96869618  .00000097  00000+0  27688-4 0  9995
2 43078  86.3968 283.4551 0002136  91.9611 268.1829 14.34218284447683
IRIDIUM 131             
1 43079U 17083K   26185.28290694  .00000087  00000+0  24001-4 0  9999
2 43079  86.3988 315.0300 0002226  93.3643 266.7807 14.34218128446553
IRIDIUM 144             
1 43249U 18030A   26185.25411386  .00000109  00000+0  31823-4 0  9996
2 43249  86.3964 283.2644 0002287  97.9523 262.1933 14.34217654432588
IRIDIUM 149             
1 43250U 18030B   26185.19068791  .00000089  00000+0  24729-4 0  9993
2 43250  86.3962 283.2576 0002272  93.3665 266.7791 14.34218074432593
IRIDIUM 157             
1 43251U 18030C   26185.27948422  .00000092  00000+0  25673-4 0  9994
2 43251  86.3965 283.2741 0002248  94.9334 265.2119 14.34217974432589
IRIDIUM 140             
1 43252U 18030D   26185.29851174  .00000109  00000+0  31780-4 0  9999
2 43252  86.3964 283.2786 0002216  95.4950 264.6499 14.34218121432649
IRIDIUM 145             
1 43253U 18030E   26185.21604932  .00000290  00000+0  96474-4 0  9992
2 43253  86.3966 283.2853 0002331 104.2312 255.9143 14.34216714432562
IRIDIUM 146             
1 43254U 18030F   26185.19703027  .00000079  00000+0  21179-4 0  9990
2 43254  86.3964 283.3054 0002299  98.6110 261.5346 14.34218156432571
IRIDIUM 148             
1 43255U 18030G   26185.23508644  .00000089  00000+0  24724-4 0  9994
2 43255  86.3965 283.3328 0002401  94.8768 265.2702 14.34218056432610
IRIDIUM 142             
1 43256U 18030H   26184.99406696  .00000110  00000+0  32075-4 0  9994
2 43256  86.3961 283.3218 0002332  98.6598 261.4862 14.34218360432546
IRIDIUM 150             
1 43257U 18030J   26185.24142831  .00000155  00000+0  48162-4 0  9995
2 43257  86.3966 283.3357 0002203  96.3248 263.8199 14.34218365432601
IRIDIUM 143             
1 43258U 18030K   26185.22239840  .00000075  00000+0  19570-4 0  9993
2 43258  86.3969 283.4368 0002262  98.4814 261.6638 14.34216878432538
IRIDIUM 161             
1 43478U 18047C   26184.94705641  .00000365  00000+0  10237-3 0  9992
2 43478  86.4474  81.4635 0002416  79.5382 280.6091 14.43281776427557
IRIDIUM 152             
1 43479U 18047D   26185.12535885  .00000296  00000+0  98682-4 0  9999
2 43479  86.3950  81.2502 0002215  81.7581 278.3866 14.34216771424914
IRIDIUM 147             
1 43480U 18047E   26184.71307350  .00000274  00000+0  90698-4 0  9994
2 43480  86.3950  81.4280 0002208  87.3448 272.8001 14.34221061424858
IRIDIUM 110             
1 43481U 18047F   26185.13803554  .00000038  00000+0  63851-5 0  9999
2 43481  86.3953  81.3427 0002331  76.1672 283.9783 14.34217786424901
IRIDIUM 162             
1 43482U 18047G   26185.14874629  .00000361  00000+0  10134-3 0  9995
2 43482  86.4472  81.2699 0002259  83.6653 276.4805 14.43280751427570
IRIDIUM 160             
1 43569U 18061A   26185.08387100  .00000042  00000+0  78734-5 0  9991
2 43569  86.3947  49.7310 0002246  85.7062 274.4391 14.34217907415796
IRIDIUM 166             
1 43570U 18061B   26185.03947288  .00000117  00000+0  34877-4 0  9999
2 43570  86.3946  49.6999 0002228  88.9665 271.1786 14.34218140415818
IRIDIUM 158             
1 43571U 18061C   26185.00775962  .00000045  00000+0  90690-5 0  9991
2 43571  86.3944  49.7229 0002077  84.6486 275.4946 14.34217861415779
IRIDIUM 165             
1 43572U 18061D   26185.03312991  .00000067  00000+0  16841-4 0  9993
2 43572  86.3948  49.7592 0002171  90.1113 270.0332 14.34218061415808
IRIDIUM 155             
1 43573U 18061E   26185.06484046  .00000219  00000+0  71168-4 0  9990
2 43573  86.3941  49.6139 0002050  86.7567 273.3863 14.34219528415778
